start=new Date('2022-03-10T00:00:00.000Z').valueOf();
sats=[{"FILE":"3352875","TLE_LINE1":"1 44741U 19074AE  22068.88796162  .00006226  00000-0  43652-3 0  9995","ECCENTRICITY":"0.00015800","RA_OF_ASC_NODE":"284.4078","ELEMENT_SET_NO":"999","OBJECT_ID":"2019-074AE","CENTER_NAME":"EARTH","GP_ID":"198358124","MEAN_ELEMENT_THEORY":"SGP4","RCS_SIZE":"LARGE","MEAN_MOTION":"15.06398668","TLE_LINE2":"2 44741  53.0535 284.4078 0001580  61.2702 298.8445 15.06398668128292","SITE":"AFETR","MEAN_MOTION_DOT":"0.00006226","OBJECT_NAME":"STARLINK-1036","DECAY_DATE":null,"PERIOD":"95.592","APOAPSIS":"548.312","OBJECT_TYPE":"PAYLOAD","LAUNCH_DATE":"2019-11-11","MEAN_ANOMALY":"298.8445","INCLINATION":"53.0535","EPHEMERIS_TYPE":"0","SEMIMAJOR_AXIS":"6925.353","ARG_OF_PERICENTER":"61.2702","NORAD_CAT_ID":"44741","CLASSIFICATION_TYPE":"U","REV_AT_EPOCH":"12829","BSTAR":"0.00043652000000","PERIAPSIS":"546.123","EPOCH":"2022-03-09T21:18:39.883968","COUNTRY_CODE":"US","REF_FRAME":"TEME","TIME_SYSTEM":"UTC","MEAN_MOTION_DDOT":"0.0000000000000"},{"OBJECT_ID":"2019-074AF","CENTER_NAME":"EARTH","GP_ID":"198358375","MEAN_ELEMENT_THEORY":"SGP4","RCS_SIZE":"LARGE","TLE_LINE1":"1 44742U 19074AF  22068.84477786  .00013650  00000-0  81358-3 0  9994","ECCENTRICITY":"0.00022290","RA_OF_ASC_NODE":"274.4182","FILE":"3352875","ELEMENT_SET_NO":"999","SITE":"AFETR","MEAN_MOTION_DOT":"0.00013650","MEAN_MOTION":"15.11456985","TLE_LINE2":"2 44742  52.9961 274.4182 0002229 140.1785 219.9369 15.11456985128391","MEAN_ANOMALY":"219.9369","INCLINATION":"52.9961","EPHEMERIS_TYPE":"0","SEMIMAJOR_AXIS":"6909.893","PERIOD":"95.272","DECAY_DATE":null,"OBJECT_NAME":"STARLINK-1037","LAUNCH_DATE":"2019-11-11","OBJECT_TYPE":"PAYLOAD","APOAPSIS":"533.298","PERIAPSIS":"530.218","REV_AT_EPOCH":"12839","BSTAR":"0.00081358000000","TIME_SYSTEM":"UTC","MEAN_MOTION_DDOT":"0.0000000000000","EPOCH":"2022-03-09T20:16:28.807104","COUNTRY_CODE":"US","REF_FRAME":"TEME","NORAD_CAT_ID":"44742","ARG_OF_PERICENTER":"140.1785","CLASSIFICATION_TYPE":"U"},{"MEAN_ANOMALY":"303.8395","EPHEMERIS_TYPE":"0","INCLINATION":"53.0558","SEMIMAJOR_AXIS":"6925.411","DECAY_DATE":null,"OBJECT_NAME":"STARLINK-1038","PERIOD":"95.593","OBJECT_TYPE":"PAYLOAD","APOAPSIS":"548.532","LAUNCH_DATE":"2019-11-11","REV_AT_EPOCH":"12811","BSTAR":"0.00021513000000","PERIAPSIS":"546.019","COUNTRY_CODE":"US","REF_FRAME":"TEME","EPOCH":"2022-03-09T22:30:19.411488","TIME_SYSTEM":"UTC","MEAN_MOTION_DDOT":"0.0000000000000","ARG_OF_PERICENTER":"56.2766","NORAD_CAT_ID":"44743","CLASSIFICATION_TYPE":"U","OBJECT_ID":"2019-074AG","CENTER_NAME":"EARTH","GP_ID":"198357123","MEAN_ELEMENT_THEORY":"SGP4","RCS_SIZE":"LARGE","FILE":"3352875","TLE_LINE1":"1 44743U 19074AG  22068.93772467  .00002922  00000-0  21513-3 0  9996","ECCENTRICITY":"0.00018140","RA_OF_ASC_NODE":"304.1857","ELEMENT_SET_NO":"999","SITE":"AFETR","MEAN_MOTION_DOT":"0.00002922","MEAN_MOTION":"15.06379786","TLE_LINE2":"2 44743  53.0558 304.1857 0001814  56.2766 303.8395 15.06379786128110"},{"FILE":"3352875","RA_OF_ASC_NODE":"304.1383","ECCENTRICITY":"0.00017380","TLE_LINE1":"1 44744U 19074AH  22068.94878732  .00001062  00000-0  90187-4 0  9998","ELEMENT_SET_NO":"999","MEAN_ELEMENT_THEORY":"SGP4","GP_ID":"198357373","CENTER_NAME":"EARTH","OBJECT_ID":"2019-074AH","RCS_SIZE":"LARGE","MEAN_MOTION":"15.06385966","TLE_LINE2":"2 44744  53.0550 304.1383 0001738  62.0077 298.1088 15.06385966128024","SITE":"AFETR","MEAN_MOTION_DOT":"0.00001062","OBJECT_NAME":"STARLINK-1039","DECAY_DATE":null,"PERIOD":"95.593","APOAPSIS":"548.460","OBJECT_TYPE":"PAYLOAD","LAUNCH_DATE":"2019-11-11","INCLINATION":"53.0550","EPHEMERIS_TYPE":"0","MEAN_ANOMALY":"298.1088","SEMIMAJOR_AXIS":"6925.392","ARG_OF_PERICENTER":"62.0077","NORAD_CAT_ID":"44744","CLASSIFICATION_TYPE":"U","BSTAR":"0.00009018700000","REV_AT_EPOCH":"12802","PERIAPSIS":"546.053","COUNTRY_CODE":"US","REF_FRAME":"TEME","EPOCH":"2022-03-09T22:46:15.224448","MEAN_MOTION_DDOT":"0.0000000000000","TIME_SYSTEM":"UTC"},{"TLE_LINE2":"2 44746  53.0555 304.2071 0001881  55.6699 304.4468 15.06390577128020","MEAN_MOTION":"15.06390577","MEAN_MOTION_DOT":"0.00001911","SITE":"AFETR","ELEMENT_SET_NO":"999","FILE":"3352875","TLE_LINE1":"1 44746U 19074AK  22068.93403263  .00001911  00000-0  14721-3 0  9994","ECCENTRICITY":"0.00018810","RA_OF_ASC_NODE":"304.2071","RCS_SIZE":"LARGE","OBJECT_ID":"2019-074AK","GP_ID":"198358625","MEAN_ELEMENT_THEORY":"SGP4","CENTER_NAME":"EARTH","CLASSIFICATION_TYPE":"U","ARG_OF_PERICENTER":"55.6699","NORAD_CAT_ID":"44746","COUNTRY_CODE":"US","EPOCH":"2022-03-09T22:25:00.419232","REF_FRAME":"TEME","TIME_SYSTEM":"UTC","MEAN_MOTION_DDOT":"0.0000000000000","REV_AT_EPOCH":"12802","BSTAR":"0.00014721000000","PERIAPSIS":"545.940","OBJECT_TYPE":"PAYLOAD","APOAPSIS":"548.545","LAUNCH_DATE":"2019-11-11","PERIOD":"95.593","DECAY_DATE":null,"OBJECT_NAME":"STARLINK-1041","SEMIMAJOR_AXIS":"6925.377","MEAN_ANOMALY":"304.4468","INCLINATION":"53.0555","EPHEMERIS_TYPE":"0"},{"ELEMENT_SET_NO":"999","ECCENTRICITY":"0.00016890","TLE_LINE1":"1 44747U 19074AL  22068.89719553  .00002256  00000-0  17040-3 0  9992","RA_OF_ASC_NODE":"304.3708","FILE":"3352875","RCS_SIZE":"LARGE","OBJECT_ID":"2019-074AL","MEAN_ELEMENT_THEORY":"SGP4","GP_ID":"198358876","CENTER_NAME":"EARTH","TLE_LINE2":"2 44747  53.0560 304.3708 0001689  70.0289 290.0882 15.06373025128026","MEAN_MOTION":"15.06373025","MEAN_MOTION_DOT":"0.00002256","SITE":"AFETR","LAUNCH_DATE":"2019-11-11","APOAPSIS":"548.466","OBJECT_TYPE":"PAYLOAD","DECAY_DATE":null,"OBJECT_NAME":"STARLINK-1042","PERIOD":"95.594","SEMIMAJOR_AXIS":"6925.431","MEAN_ANOMALY":"290.0882","INCLINATION":"53.0560","EPHEMERIS_TYPE":"0","CLASSIFICATION_TYPE":"U","NORAD_CAT_ID":"44747","ARG_OF_PERICENTER":"70.0289","TIME_SYSTEM":"UTC","MEAN_MOTION_DDOT":"0.0000000000000","COUNTRY_CODE":"US","EPOCH":"2022-03-09T21:31:57.693792","REF_FRAME":"TEME","PERIAPSIS":"546.127","REV_AT_EPOCH":"12802","BSTAR":"0.00017040000000"},{"ARG_OF_PERICENTER":"73.7114","NORAD_CAT_ID":"44748","CLASSIFICATION_TYPE":"U","REV_AT_EPOCH":"12802","BSTAR":"0.00020968000000","PERIAPSIS":"545.793","EPOCH":"2022-03-09T22:14:22.186752","COUNTRY_CODE":"US","REF_FRAME":"TEME","TIME_SYSTEM":"UTC","MEAN_MOTION_DDOT":"0.0000000000000","DECAY_DATE":null,"OBJECT_NAME":"STARLINK-1043","PERIOD":"95.592","APOAPSIS":"548.573","OBJECT_TYPE":"PAYLOAD","LAUNCH_DATE":"2019-11-11","MEAN_ANOMALY":"286.4096","EPHEMERIS_TYPE":"0","INCLINATION":"53.0552","SEMIMAJOR_AXIS":"6925.318","MEAN_MOTION":"15.06410086","TLE_LINE2":"2 44748  53.0552 304.2329 0002007  73.7114 286.4096 15.06410086128023","SITE":"AFETR","MEAN_MOTION_DOT":"0.00002844","FILE":"3352875","ECCENTRICITY":"0.00020070","TLE_LINE1":"1 44748U 19074AM  22068.92664568  .00002844  00000-0  20968-3 0  9998","RA_OF_ASC_NODE":"304.2329","ELEMENT_SET_NO":"999","OBJECT_ID":"2019-074AM","GP_ID":"198357624","MEAN_ELEMENT_THEORY":"SGP4","CENTER_NAME":"EARTH","RCS_SIZE":"LARGE"},{"CLASSIFICATION_TYPE":"U","NORAD_CAT_ID":"44751","ARG_OF_PERICENTER":"54.9012","TIME_SYSTEM":"UTC","MEAN_MOTION_DDOT":"0.0000000000000","COUNTRY_CODE":"US","EPOCH":"2022-03-09T22:35:37.175136","REF_FRAME":"TEME","PERIAPSIS":"546.097","REV_AT_EPOCH":"12802","BSTAR":"0.00002270600000","LAUNCH_DATE":"2019-11-11","OBJECT_TYPE":"PAYLOAD","APOAPSIS":"548.409","PERIOD":"95.593","DECAY_DATE":null,"OBJECT_NAME":"STARLINK-1046","SEMIMAJOR_AXIS":"6925.388","MEAN_ANOMALY":"305.2133","EPHEMERIS_TYPE":"0","INCLINATION":"53.0550","TLE_LINE2":"2 44751  53.0550 304.1787 0001669  54.9012 305.2133 15.06387069128029","MEAN_MOTION":"15.06387069","MEAN_MOTION_DOT":"0.00000057","SITE":"AFETR","ELEMENT_SET_NO":"999","TLE_LINE1":"1 44751U 19074AQ  22068.94140249  .00000057  00000-0  22706-4 0  9996","ECCENTRICITY":"0.00016690","RA_OF_ASC_NODE":"304.1787","FILE":"3352875","RCS_SIZE":"LARGE","OBJECT_ID":"2019-074AQ","GP_ID":"198357874","MEAN_ELEMENT_THEORY":"SGP4","CENTER_NAME":"EARTH"},{"TLE_LINE2":"2 44752  53.0558 284.3768 0001781  69.4887 290.6293 15.06373404128293","MEAN_MOTION":"15.06373404","MEAN_MOTION_DOT":"0.00004035","SITE":"AFETR","ELEMENT_SET_NO":"999","ECCENTRICITY":"0.00017810","TLE_LINE1":"1 44752U 19074AR  22068.89534176  .00004035  00000-0  28981-3 0  9997","RA_OF_ASC_NODE":"284.3768","FILE":"3352875","RCS_SIZE":"LARGE","OBJECT_ID":"2019-074AR","CENTER_NAME":"EARTH","GP_ID":"198358125","MEAN_ELEMENT_THEORY":"SGP4","CLASSIFICATION_TYPE":"U","NORAD_CAT_ID":"44752","ARG_OF_PERICENTER":"69.4887","TIME_SYSTEM":"UTC","MEAN_MOTION_DDOT":"0.0000000000000","REF_FRAME":"TEME","COUNTRY_CODE":"US","EPOCH":"2022-03-09T21:29:17.528064","PERIAPSIS":"546.062","REV_AT_EPOCH":"12829","BSTAR":"0.00028981000000","LAUNCH_DATE":"2019-11-11","OBJECT_TYPE":"PAYLOAD","APOAPSIS":"548.528","DECAY_DATE":null,"OBJECT_NAME":"STARLINK-1047","PERIOD":"95.594","SEMIMAJOR_AXIS":"6925.430","MEAN_ANOMALY":"290.6293","INCLINATION":"53.0558","EPHEMERIS_TYPE":"0"},{"RA_OF_ASC_NODE":"264.6441","TLE_LINE1":"1 44753U 19074AS  22068.83450473  .00002061  00000-0  15724-3 0  9997","ECCENTRICITY":"0.00017010","FILE":"3352875","ELEMENT_SET_NO":"999","GP_ID":"198358376","MEAN_ELEMENT_THEORY":"SGP4","CENTER_NAME":"EARTH","OBJECT_ID":"2019-074AS","RCS_SIZE":"LARGE","MEAN_MOTION":"15.06397807","TLE_LINE2":"2 44753  53.0519 264.6441 0001701  73.8530 286.2646 15.06397807128562","SITE":"AFETR","MEAN_MOTION_DOT":"0.00002061","DECAY_DATE":null,"PERIOD":"95.592","OBJECT_NAME":"STARLINK-1048","LAUNCH_DATE":"2019-11-11","OBJECT_TYPE":"PAYLOAD","APOAPSIS":"548.398","EPHEMERIS_TYPE":"0","INCLINATION":"53.0519","MEAN_ANOMALY":"286.2646","SEMIMAJOR_AXIS":"6925.355","NORAD_CAT_ID":"44753","ARG_OF_PERICENTER":"73.8530","CLASSIFICATION_TYPE":"U","PERIAPSIS":"546.042","BSTAR":"0.00015724000000","REV_AT_EPOCH":"12856","MEAN_MOTION_DDOT":"0.0000000000000","TIME_SYSTEM":"UTC","COUNTRY_CODE":"US","EPOCH":"2022-03-09T20:01:41.208672","REF_FRAME":"TEME"}];
